NUSAT-48 (HENRIETTA LE*)
1 60498U 24149AG  26068.80506098  .00012988  00000+0  45212-3 0  9999
2 60498  97.3923 150.8264 0002754 263.3026  96.7901 15.29812597 86946
STARLINK-35022          
1 65409U 25192F   26068.74672620  .00033635  00000+0  11138-2 0  9994
2 65409  53.1589 232.0428 0000808  37.8679 322.2379 15.31027796 29396
